{
    "links": {
        "self": "http://www.neowsapp.com/rest/v1/neo/3367127?api_key=iIulBulltgU6a56xZRHN4H3l9WmuAYTsLGpBGhQ2"
    },
    "id": "3367127",
    "neo_reference_id": "3367127",
    "name": "(2007 BY48)",
    "designation": "2007 BY48",
    "nasa_jpl_url": "http://ssd.jpl.nasa.gov/sbdb.cgi?sstr=3367127",
    "absolute_magnitude_h": 22.6,
    "estimated_diameter": {
        "kilometers": {
            "estimated_diameter_min": 0.0802703167,
            "estimated_diameter_max": 0.1794898848
        },
        "meters": {
            "estimated_diameter_min": 80.2703167283,
            "estimated_diameter_max": 179.4898847799
        },
        "miles": {
            "estimated_diameter_min": 0.049877647,
            "estimated_diameter_max": 0.1115298092
        },
        "feet": {
            "estimated_diameter_min": 263.3540659348,
            "estimated_diameter_max": 588.8775935812
        }
    },
    "is_potentially_hazardous_asteroid": false,
    "close_approach_data": [
        {
            "close_approach_date": "1941-01-03",
            "close_approach_date_full": "1941-Jan-03 13:55",
            "epoch_date_close_approach": -914925900000,
            "relative_velocity": {
                "kilometers_per_second": "15.9120496844",
                "kilometers_per_hour": "57283.3788639764",
                "miles_per_hour": "35593.6639391191"
            },
            "miss_distance": {
                "astronomical": "0.3454898942",
                "lunar": "134.3955688438",
                "kilometers": "51684552.278845354",
                "miles": "32115291.5802157252"
            },
            "orbiting_body": "Earth"
        },
        {
            "close_approach_date": "2007-01-21",
            "close_approach_date_full": "2007-Jan-21 20:12",
            "epoch_date_close_approach": 1169410320000,
            "relative_velocity": {
                "kilometers_per_second": "14.4087479547",
                "kilometers_per_hour": "51871.4926367735",
                "miles_per_hour": "32230.9282997774"
            },
            "miss_distance": {
                "astronomical": "0.0294310702",
                "lunar": "11.4486863078",
                "kilometers": "4402825.413740474",
                "miles": "2735788.8518835812"
            },
            "orbiting_body": "Earth"
        }
    ],
    "orbital_data": {
        "orbit_id": "6",
        "orbit_determination_date": "2017-04-06 09:07:09",
        "first_observation_date": "2007-01-26",
        "last_observation_date": "2007-01-28",
        "data_arc_in_days": 2,
        "observations_used": 33,
        "orbit_uncertainty": "8",
        "minimum_orbit_intersection": ".0293872",
        "jupiter_tisserand_invariant": "4.621",
        "epoch_osculation": "2454127.5",
        "eccentricity": ".2873535119811799",
        "semi_major_axis": "1.397787096638252",
        "inclination": "25.12878141884331",
        "ascending_node_longitude": "301.9105127119701",
        "orbital_period": "603.6149220122345",
        "perihelion_distance": ".9961280654172733",
        "perihelion_argument": "156.9827939941042",
        "aphelion_distance": "1.79944612785923",
        "perihelion_time": "2454102.343823255404",
        "mean_anomaly": "15.00331303584142",
        "mean_motion": ".5964067269905949",
        "equinox": "J2000",
        "orbit_class": {
            "orbit_class_type": "APO",
            "orbit_class_description": "Near-Earth asteroid orbits which cross the Earth’s orbit similar to that of 1862 Apollo",
            "orbit_class_range": "a (semi-major axis) > 1.0 AU; q (perihelion) < 1.017 AU"
        }
    },
    "is_sentry_object": false
}